HULIANWANG JISHU SHIYAN*
1 68832U 26091B   26114.64652414  .00000663  00000+0  45932-4 0  9992
2 68832  54.9995 255.6453 0008614 270.0418  89.9614 15.19250585    65
