{
  "norad_id": 68832,
  "name": "HULIANWANG JISHU SHIYAN OBJECT B",
  "history": [
    {
      "epoch": "2026-04-24T15:30:59.685696Z",
      "apogee_km": 514.0367406786008,
      "perigee_km": 502.17174701545173,
      "latitude_deg": -1.7856030798023894e-05,
      "longitude_deg": 170.22018614371027,
      "height_km": 509.1956352150924,
      "semi_major_axis_km": 6886.2412438470255,
      "eccentricity": 0.0008615,
      "inclination_deg": 54.9995,
      "raan_deg": 255.6453,
      "arg_perigee_deg": 270.0418,
      "mean_anomaly_deg": 89.9614,
      "mean_motion_rev_day": 15.19250585
    }
  ]
}